USA 134                 
1 25019U 97065A   23092.40674559 -.00000058  00000+0  00000+0 0  9992
2 25019  11.3890  29.6848 0005187 342.7275 212.2725  1.00275674 21207
ASTRA 1G                
1 25071U 97076A   23092.66422083  .00000117  00000+0  00000+0 0  9998
2 25071   6.9084  65.9843 0004614 298.4310  84.8415  1.00272568 92766
INMARSAT 3-F5           
1 25153U 98006B   23092.86474074 -.00000286  00000+0  00000+0 0  9990
2 25153   7.0473  63.6784 0005136 308.5736  75.9934  1.00274748 92157
UFO 8 (USA 138)         
1 25258U 98016A   23092.45952133  .00000034  00000+0  00000+0 0  9999
2 25258   9.7451  28.7002 0000861 337.0700 220.5361  1.00383346 91821
ASTRA 2A                
1 25462U 98050A   23093.09355060  .00000071  00000+0  00000+0 0  9992
2 25462   4.1296  82.4013 0003372 280.4646 279.1822  1.00270487 89991
SKYNET 4E               
1 25639U 99009B   23093.04424395 -.00000030  00000+0  00000+0 0  9992
2 25639  11.3956  15.3889 0002815 356.0948 194.3588  1.00269992 88278
ABS-6                   
1 25924U 99053A   23093.12271598 -.00000121  00000+0  00000+0 0  9993
2 25924   0.0420  98.3846 0002706 311.9080 344.0708  1.00270792 86104
UFO 10 (USA 146)        
1 25967U 99063A   23092.65585300 -.00000184  00000+0  00000+0 0  9996
2 25967   9.0715  32.4229 0002351   2.6324   8.9022  1.00273302 85601
GALAXY 11 (G-11)        
1 26038U 99071A   23092.85698309 -.00000161  00000+0  00000+0 0  9996
2 26038   3.7502  84.3973 0001341  12.0816 309.8573  1.00271946 85333
USA 148                 
1 26052U 00001A   23092.60118981  .00000043  00000+0  00000+0 0  9991
2 26052   9.9986  40.6269 0001746 292.0330 254.6744  1.00274472 21217
ASIASTAR                
1 26107U 00016A   23092.97063372 -.00000330  00000+0  00000+0 0  9991
2 26107   6.3599  69.5560 0004509 302.2921 273.6307  1.00274118 84406
USA 149 (DSP 20)        
1 26356U 00024A   23092.53374142  .00000099  00000+0  00000+0 0  9999
2 26356  12.2934  19.6422 0001373 240.6192 316.6632  1.00273342 21166
TDRS 8                  
1 26388U 00034A   23092.85327370 -.00000229  00000+0  00000+0 0  9997
2 26388  10.8270  40.5266 0023967 337.6852 208.9978  1.00278359 83437
INTELSAT 9 (IS-9)       
1 26451U 00043A   23092.79382159 -.00000284  00000+0  00000+0 0  9998
2 26451   7.8329  59.1480 0002538 306.4251  61.0775  1.00273536 32407
NSS-11 (AAP-1)          
1 26554U 00059A   23092.83885281  .00000023  00000+0  00000+0 0  9998
2 26554   0.0457  64.8445 0002736 291.6090 312.4276  1.00271667 29541
USA 153                 
1 26575U 00065A   23092.75886848 -.00000319  00000+0  00000+0 0  9998
2 26575   9.5922  43.9472 0001441 284.1794 270.4611  1.00272366 21188
AMC-6 (GE-6)            
1 26580U 00067A   23092.64146691  .00000102  00000+0  00000+0 0  9998
2 26580   0.0423  65.1371 0002186 298.4358 279.0587  1.00271616 82159
INTELSAT 1R (IS-1R)     
1 26608U 00072A   23092.83510472 -.00000136  00000+0  00000+0 0  9996
2 26608   5.1637  76.7280 0001420   8.5768 203.3395  1.00273127 81903
ANIK F1                 
1 26624U 00076A   23092.63859437 -.00000063  00000+0  00000+0 0  9992
2 26624   2.1687  89.0683 0007413 321.3603 260.9808  1.00273266 31399
USA 157 (MILSTAR-2 2)   
1 26715U 01009A   23092.92244385  .00000017  00000+0  00000+0 0  9990
2 26715  10.2914  25.9800 0002320 338.9005  33.8892  1.00273932 19908
EUTELSAT 133 WEST A     
1 26719U 01011A   23092.72782698 -.00000123  00000+0  00000+0 0  9998
2 26719   4.4272  79.8806 0004254 308.4193  43.0739  1.00518368 80799
INTELSAT 10 (IS-10)     
1 26766U 01019A   23092.67688319  .00000036  00000+0  00000+0 0  9999
2 26766   6.2656  70.8107 0003685 307.7056 233.7083  1.00271787 33877
INTELSAT 901 (IS-901)   
1 26824U 01024A   23092.84285566 -.00000204  00000+0  00000+0 0  9994
2 26824   0.0188 176.9371 0001107 211.4865  78.4152  1.00271461 11248
ASTRA 2C                
1 26853U 01025A   23092.86107983 -.00000256  00000+0  00000+0 0  9992
2 26853   5.2775  76.4972 0002953 291.4043  60.5051  1.00269298 79829
USA 159 (DSP 21)        
1 26880U 01033A   23092.72224844 -.00000292  00000+0  00000+0 0  9992
2 26880  11.6875  24.0179 0001727 353.4333  24.1669  1.00267408 21221
INTELSAT 902 (IS-902)   
1 26900U 01039A   23093.09632767 -.00000281  00000+0  00000+0 0  9997
2 26900   3.1365  85.7311 0002592 308.8289 141.1709  1.00270351 79028
USA 164 (MILSTAR-2 3)   
1 27168U 02001A   23093.02250903  .00000052  00000+0  00000+0 0  9990
2 27168   9.8171  27.8238 0101546 350.3685 199.9470  1.00275741 19904
INTELSAT 904 (IS-904)   
1 27380U 02007A   23092.84285566 -.00000212  00000+0  00000+0 0  9993
2 27380   3.9626  82.7851 0003176 292.0593  89.9954  1.00273257 40023
NSS-7                   
1 27414U 02019A   23092.72808847 -.00000155  00000+0  00000+0 0  9990
2 27414   6.5774  68.8493 0002631 301.8424  62.2102  1.00271533 76829
DIRECTV 5 (TEMPO 1)     
1 27426U 02023A   23092.63850720 -.00000057  00000+0  00000+0 0  9996
2 27426   1.8629  89.7372 0003386 278.7449 301.9757  1.00272362 76374
INTELSAT 905 (IS-905)   
1 27438U 02027A   23092.72721682 -.00000184  00000+0  00000+0 0  9998
2 27438   3.7853  83.4908 0002746 289.6749  54.9338  1.00271078 39615
GALAXY 3C (G-3C)        
1 27445U 02030A   23092.85663442 -.00000153  00000+0  00000+0 0  9999
2 27445   0.7017  91.7165 0000591 345.3142 327.4179  1.00271539 34744
INTELSAT 906 (IS-906)   
1 27513U 02041A   23092.88827524  .00000015  00000+0  00000+0 0  9999
2 27513   2.8066  87.0992 0002789 292.8383 194.9329  1.00271199 75287
TDRS 10                 
1 27566U 02055A   23092.60712188  .00000092  00000+0  00000+0 0  9996
2 27566   8.7362  48.2779 0008742 329.1163 220.7274  1.00268336 74472
NSS-6                   
1 27603U 02057A   23092.84172925  .00000108  00000+0  00000+0 0  9993
2 27603   2.3437  88.2506 0003152 277.7021 318.4362  1.00271882 74293
NIMIQ 2                 
1 27632U 02062A   23092.99714410 -.00000063  00000+0  00000+0 0  9999
2 27632   6.6801  68.2786 0003916 285.2482  87.3073  1.00273862 74121
USA 167                 
1 27691U 03008A   23092.58097958  .00000057  00000+0  00000+0 0  9993
2 27691   8.6138  52.6996 0001551 303.7213 273.3293  1.00273199 21207
USA 169 (MILSTAR-2 4)   
1 27711U 03012A   23092.67687981 -.00000243  00000+0  00000+0 0  9990
2 27711  10.5593  38.3696 0100845 351.0447 197.2029  1.00272796 21209
GALAXY 12 (G-12)        
1 27715U 03013B   23092.70638444  .00000059  00000+0  00000+0 0  9993
2 27715   3.9953  82.4697 0002089 289.7251 303.8761  1.00272369 40341
ASIASAT 4               
1 27718U 03014A   23092.90492373 -.00000222  00000+0  00000+0 0  9991
2 27718   1.6963  90.3847 0003254 279.6227 294.2945  1.00272459 33553
HELLAS-SAT 2            
1 27811U 03020A   23092.73009326 -.00000080  00000+0  00000+0 0  9997
2 27811   4.4082  81.4281 0006129 284.6736  77.5472  1.00272500 72599
THURAYA-2               
1 27825U 03026A   23092.52576687  .00000129  00000+0  00000+0 0  9997
2 27825   7.1077  34.5779 0002021 322.6585  66.6280  1.00272647 72601
OPTUS C1                
1 27831U 03028B   23092.90649270 -.00000148  00000+0  00000+0 0  9999
2 27831   3.9268  83.2055 0006046 293.0194 296.8149  1.00273367 72588
GALAXY 23 (G-23)        
1 27854U 03034A   23092.63632809  .00000011  00000+0  00000+0 0  9999
2 27854   0.1671  96.8055 0002769 278.8346 283.1509  1.00272284 71998
USA 170                 
1 27875U 03040A   23092.79530338 -.00000269  00000+0  00000+0 0  9996
2 27875   7.9946  57.8492 0002335 334.6938  42.0975  1.00276470 21221
GALAXY 13 (HORIZONS-1)  
1 27954U 03044A   23093.06530696  .00000047  00000+0  00000+0 0  9999
2 27954   0.0222 249.4062 0001827 123.1544  75.0625  1.00272081 71419
YAMAL 202               
1 28089U 03053A   23091.34478859 -.00000082  00000+0  00000+0 0  9990
2 28089   3.3606  84.8056 0003364 299.2438  93.0291  1.00272220 70929
UFO 11 (USA 174)        
1 28117U 03057A   23092.89054153 -.00000100  00000+0  00000+0 0  9995
2 28117   7.3972  37.6541 0004449   4.7540 184.6573  1.00273371 70674
USA 176 (DSP 22)        
1 28158U 04004A   23092.85327370 -.00000215  00000+0  00000+0 0  9990
2 28158  10.4712  33.6409 0001013 331.0510 220.7906  1.00274167 21180
ABS-4 (MOBISAT-1)       
1 28184U 04007A   23092.88766508  .00000040  00000+0  00000+0 0  9990
2 28184   3.0553  85.8920 0005419 291.4150 194.2449  1.00274990 40597
EUTELSAT 7A             
1 28187U 04008A   23092.64146691  .00000104  00000+0  00000+0 0  9994
2 28187   2.8385  85.3872 0004203 286.0388 271.0236  1.00274400 69601
AMC-11 (GE-11)          
1 28252U 04017A   23093.06844490 -.00000051  00000+0  00000+0 0  9998
2 28252   0.0468  52.0038 0002159 282.4817 130.1916  1.00272142 68965
INTELSAT 10-02          
1 28358U 04022A   23093.07688135 -.00000012  00000+0  00000+0 0  9991
2 28358   0.0024 196.3202 0001080 181.4965 200.0227  1.00271892 68883
ANIK F2                 
1 28378U 04027A   23093.06844490 -.00000051  00000+0  00000+0 0  9998
2 28378   0.3319  91.8074 0002273 309.1653  63.6905  1.00271706 68610
AMC-15                  
1 28446U 04041A   23093.06966521 -.00000090  00000+0  00000+0 0  9993
2 28446   0.0446  37.1175 0002514 327.8991 106.1437  1.00272254 67609
NSS-10 (AMC-12)         
1 28526U 05003A   23092.85535750 -.00000249  00000+0  00000+0 0  9999
2 28526   3.5028  84.1841 0003100 280.2483  96.9690  1.00271376 41416
XTAR-EUR                
1 28542U 05005A   23092.64559504  .00000150  00000+0  00000+0 0  9999
2 28542   1.3110  91.1381 0003604 275.7890  85.1999  1.00271907 66441
XM-3 (RHYTHM)           
1 28626U 05008A   23092.85855205 -.00000207  00000+0  00000+0 0  9999
2 28626   0.0162 175.1094 0000417 184.8346  54.9576  1.00270244 30872
INMARSAT 4-F1           
1 28628U 05009A   23092.83240260 -.00000260  00000+0  00000+0 0  9998
2 28628   3.8456  37.8535 0002999 336.9630 259.2617  1.00271837 65927
